{"type": "FeatureCollection", "features": [ {"type": "Feature", "properties": {"norad_id": 39155, "name": "COSMOS 2485 (747)", "group": "glo-ops", "lat": -22.550466902071133, "lon": -89.35860409866304, "alt_km": 19075.72016766983, "timestamp": "2025-12-19T10:50:01.461973+00:00", "meta": {"OBJECT_NAME": "COSMOS 2485 (747)", "OBJECT_ID": "2013-019A", "EPOCH": "2025-12-18T17:09:02.723904", "MEAN_MOTION": 2.13103162, "ECCENTRICITY": 0.00247945, "INCLINATION": 65.3168, "RA_OF_ASC_NODE": 79.6662, "ARG_OF_PERICENTER": 230.0008, "MEAN_ANOMALY": 129.8045, "EPHEMERIS_TYPE": 0, "CLASSIFICATION_TYPE": "U", "NORAD_CAT_ID": 39155, "ELEMENT_SET_NO": 999, "REV_AT_EPOCH": 9843, "BSTAR": 0, "MEAN_MOTION_DOT": -3.5e-07, "MEAN_MOTION_DDOT": 0}, "tle": {"line1": "1 39155U 13019A   25352.71461486 -.00000035  00000+0  00000+0 0  9998", "line2": "2 39155  65.3168  79.6662 0024794 230.0008 129.8045  2.13103162 98431"}}, "geometry": {"type": "Point", "coordinates": [-89.35860409866304, -22.550466902071133]}}, {"type": "Feature", "properties": {"norad_id": 39620, "name": "COSMOS 2492 (754)", "group": "glo-ops", "lat": -49.511316744476225, "lon": 172.45929145440556, "alt_km": 19126.49283689454, "timestamp": "2025-12-19T10:50:01.461985+00:00", "meta": {"OBJECT_NAME": "COSMOS 2492 (754)", "OBJECT_ID": "2014-012A", "EPOCH": "2025-12-18T04:53:42.056736", "MEAN_MOTION": 2.13103354, "ECCENTRICITY": 0.0014217, "INCLINATION": 65.4043, "RA_OF_ASC_NODE": 320.0846, "ARG_OF_PERICENTER": 312.4931, "MEAN_ANOMALY": 47.3782, "EPHEMERIS_TYPE": 0, "CLASSIFICATION_TYPE": "U", "NORAD_CAT_ID": 39620, "ELEMENT_SET_NO": 999, "REV_AT_EPOCH": 9138, "BSTAR": 0, "MEAN_MOTION_DOT": -6.4e-07, "MEAN_MOTION_DDOT": 0}, "tle": {"line1": "1 39620U 14012A   25352.20395899 -.00000064  00000+0  00000+0 0  9999", "line2": "2 39620  65.4043 320.0846 0014217 312.4931  47.3782  2.13103354 91389"}}, "geometry": {"type": "Point", "coordinates": [172.45929145440556, -49.511316744476225]}}, {"type": "Feature", "properties": {"norad_id": 40001, "name": "COSMOS 2500 (755)", "group": "glo-ops", "lat": 61.44785007153363, "lon": 82.22573876288094, "alt_km": 19131.33553975285, "timestamp": "2025-12-19T10:50:01.461996+00:00", "meta": {"OBJECT_NAME": "COSMOS 2500 (755)", "OBJECT_ID": "2014-032A", "EPOCH": "2025-12-17T21:45:50.523264", "MEAN_MOTION": 2.13106065, "ECCENTRICITY": 0.00080575, "INCLINATION": 65.3403, "RA_OF_ASC_NODE": 319.8565, "ARG_OF_PERICENTER": 219.1485, "MEAN_ANOMALY": 140.7851, "EPHEMERIS_TYPE": 0, "CLASSIFICATION_TYPE": "U", "NORAD_CAT_ID": 40001, "ELEMENT_SET_NO": 999, "REV_AT_EPOCH": 8959, "BSTAR": 0, "MEAN_MOTION_DOT": -6.5e-07, "MEAN_MOTION_DDOT": 0}, "tle": {"line1": "1 40001U 14032A   25351.90683476 -.00000065  00000+0  00000+0 0  9994", "line2": "2 40001  65.3403 319.8565 0008057 219.1485 140.7851  2.13106065 89596"}}, "geometry": {"type": "Point", "coordinates": [82.22573876288094, 61.44785007153363]}}, {"type": "Feature", "properties": {"norad_id": 40315, "name": "COSMOS 2501 (702K)", "group": "glo-ops", "lat": -63.27470535236673, "lon": 97.1222215913819, "alt_km": 19111.96684383052, "timestamp": "2025-12-19T10:50:01.462007+00:00", "meta": {"OBJECT_NAME": "COSMOS 2501 (702K)", "OBJECT_ID": "2014-075A", "EPOCH": "2025-12-17T16:44:15.819648", "MEAN_MOTION": 2.1310145, "ECCENTRICITY": 0.0020092, "INCLINATION": 63.6148, "RA_OF_ASC_NODE": 196.6532, "ARG_OF_PERICENTER": 204.0953, "MEAN_ANOMALY": 155.89, "EPHEMERIS_TYPE": 0, "CLASSIFICATION_TYPE": "U", "NORAD_CAT_ID": 40315, "ELEMENT_SET_NO": 999, "REV_AT_EPOCH": 8598, "BSTAR": 0, "MEAN_MOTION_DOT": 1.11e-06, "MEAN_MOTION_DDOT": 0}, "tle": {"line1": "1 40315U 14075A   25351.69740532  .00000111  00000+0  00000+0 0  9993", "line2": "2 40315  63.6148 196.6532 0020092 204.0953 155.8900  2.13101450 85986"}}, "geometry": {"type": "Point", "coordinates": [97.1222215913819, -63.27470535236673]}}, {"type": "Feature", "properties": {"norad_id": 41330, "name": "COSMOS 2514 (751)", "group": "glo-ops", "lat": -63.964340001175394, "lon": -112.48947419591698, "alt_km": 19120.295916645733, "timestamp": "2025-12-19T10:50:01.462022+00:00", "meta": {"OBJECT_NAME": "COSMOS 2514 (751)", "OBJECT_ID": "2016-008A", "EPOCH": "2025-12-18T03:36:56.540160", "MEAN_MOTION": 2.13102695, "ECCENTRICITY": 0.00118514, "INCLINATION": 65.1307, "RA_OF_ASC_NODE": 319.2187, "ARG_OF_PERICENTER": 220.1582, "MEAN_ANOMALY": 139.7456, "EPHEMERIS_TYPE": 0, "CLASSIFICATION_TYPE": "U", "NORAD_CAT_ID": 41330, "ELEMENT_SET_NO": 999, "REV_AT_EPOCH": 7676, "BSTAR": 0, "MEAN_MOTION_DOT": -6.5e-07, "MEAN_MOTION_DDOT": 0}, "tle": {"line1": "1 41330U 16008A   25352.15065440 -.00000065  00000+0  00000+0 0  9998", "line2": "2 41330  65.1307 319.2187 0011851 220.1582 139.7456  2.13102695 76762"}}, "geometry": {"type": "Point", "coordinates": [-112.48947419591698, -63.964340001175394]}}, {"type": "Feature", "properties": {"norad_id": 42939, "name": "COSMOS 2522 (752)", "group": "glo-ops", "lat": 36.860375100934974, "lon": -140.59764487537427, "alt_km": 19141.931805994507, "timestamp": "2025-12-19T10:50:01.462043+00:00", "meta": {"OBJECT_NAME": "COSMOS 2522 (752)", "OBJECT_ID": "2017-055A", "EPOCH": "2025-12-17T23:44:12.763104", "MEAN_MOTION": 2.13102073, "ECCENTRICITY": 0.00063915, "INCLINATION": 64.076, "RA_OF_ASC_NODE": 198.0502, "ARG_OF_PERICENTER": 224.057, "MEAN_ANOMALY": 135.9735, "EPHEMERIS_TYPE": 0, "CLASSIFICATION_TYPE": "U", "NORAD_CAT_ID": 42939, "ELEMENT_SET_NO": 999, "REV_AT_EPOCH": 6411, "BSTAR": 0, "MEAN_MOTION_DOT": 1.1e-06, "MEAN_MOTION_DDOT": 0}, "tle": {"line1": "1 42939U 17055A   25351.98903661  .00000110  00000+0  00000+0 0  9993", "line2": "2 42939  64.0760 198.0502 0006391 224.0570 135.9735  2.13102073 64110"}}, "geometry": {"type": "Point", "coordinates": [-140.59764487537427, 36.860375100934974]}}, {"type": "Feature", "properties": {"norad_id": 43508, "name": "COSMOS 2527 (756)", "group": "glo-ops", "lat": 59.847571164373605, "lon": 131.58934281974243, "alt_km": 19143.718804634114, "timestamp": "2025-12-19T10:50:01.462056+00:00", "meta": {"OBJECT_NAME": "COSMOS 2527 (756)", "OBJECT_ID": "2018-053A", "EPOCH": "2025-12-18T10:03:29.975616", "MEAN_MOTION": 2.13102295, "ECCENTRICITY": 0.00088359, "INCLINATION": 65.4756, "RA_OF_ASC_NODE": 79.9416, "ARG_OF_PERICENTER": 226.669, "MEAN_ANOMALY": 133.2786, "EPHEMERIS_TYPE": 0, "CLASSIFICATION_TYPE": "U", "NORAD_CAT_ID": 43508, "ELEMENT_SET_NO": 999, "REV_AT_EPOCH": 5842, "BSTAR": 0, "MEAN_MOTION_DOT": -3.8e-07, "MEAN_MOTION_DDOT": 0}, "tle": {"line1": "1 43508U 18053A   25352.41909694 -.00000038  00000+0  00000+0 0  9996", "line2": "2 43508  65.4756  79.9416 0008835 226.6690 133.2786  2.13102295 58420"}}, "geometry": {"type": "Point", "coordinates": [131.58934281974243, 59.847571164373605]}}, {"type": "Feature", "properties": {"norad_id": 43687, "name": "COSMOS 2529 (757)", "group": "glo-ops", "lat": -2.5016428874247074, "lon": -162.54038627703204, "alt_km": 19134.96935327363, "timestamp": "2025-12-19T10:50:01.462067+00:00", "meta": {"OBJECT_NAME": "COSMOS 2529 (757)", "OBJECT_ID": "2018-086A", "EPOCH": "2025-12-18T12:23:46.661856", "MEAN_MOTION": 2.13102105, "ECCENTRICITY": 0.00070461, "INCLINATION": 64.2922, "RA_OF_ASC_NODE": 198.6932, "ARG_OF_PERICENTER": 253.6593, "MEAN_ANOMALY": 106.345, "EPHEMERIS_TYPE": 0, "CLASSIFICATION_TYPE": "U", "NORAD_CAT_ID": 43687, "ELEMENT_SET_NO": 999, "REV_AT_EPOCH": 5543, "BSTAR": 0, "MEAN_MOTION_DOT": 1.09e-06, "MEAN_MOTION_DDOT": 0}, "tle": {"line1": "1 43687U 18086A   25352.51651229  .00000109  00000+0  00000+0 0  9997", "line2": "2 43687  64.2922 198.6932 0007046 253.6593 106.3450  2.13102105 55434"}}, "geometry": {"type": "Point", "coordinates": [-162.54038627703204, -2.5016428874247074]}}, {"type": "Feature", "properties": {"norad_id": 44299, "name": "COSMOS 2534 (758)", "group": "glo-ops", "lat": 42.403895527675004, "lon": -7.349209737825798, "alt_km": 19144.767266021707, "timestamp": "2025-12-19T10:50:01.462078+00:00", "meta": {"OBJECT_NAME": "COSMOS 2534 (758)", "OBJECT_ID": "2019-030A", "EPOCH": "2025-12-18T18:30:09.690336", "MEAN_MOTION": 2.13102412, "ECCENTRICITY": 0.0008748, "INCLINATION": 64.3658, "RA_OF_ASC_NODE": 198.6898, "ARG_OF_PERICENTER": 284.2192, "MEAN_ANOMALY": 45.4012, "EPHEMERIS_TYPE": 0, "CLASSIFICATION_TYPE": "U", "NORAD_CAT_ID": 44299, "ELEMENT_SET_NO": 999, "REV_AT_EPOCH": 5107, "BSTAR": 0, "MEAN_MOTION_DOT": 1.08e-06, "MEAN_MOTION_DDOT": 0}, "tle": {"line1": "1 44299U 19030A   25352.77094549  .00000108  00000+0  00000+0 0  9990", "line2": "2 44299  64.3658 198.6898 0008748 284.2192  45.4012  2.13102412 51071"}}, "geometry": {"type": "Point", "coordinates": [-7.349209737825798, 42.403895527675004]}}, {"type": "Feature", "properties": {"norad_id": 44850, "name": "COSMOS 2544 (759)", "group": "glo-ops", "lat": 56.05570145127221, "lon": -142.89646456460486, "alt_km": 19148.88862160671, "timestamp": "2025-12-19T10:50:01.462089+00:00", "meta": {"OBJECT_NAME": "COSMOS 2544 (759)", "OBJECT_ID": "2019-088A", "EPOCH": "2025-12-16T11:40:43.010688", "MEAN_MOTION": 2.13101965, "ECCENTRICITY": 0.00138869, "INCLINATION": 65.4623, "RA_OF_ASC_NODE": 79.8328, "ARG_OF_PERICENTER": 249.7945, "MEAN_ANOMALY": 110.0707, "EPHEMERIS_TYPE": 0, "CLASSIFICATION_TYPE": "U", "NORAD_CAT_ID": 44850, "ELEMENT_SET_NO": 999, "REV_AT_EPOCH": 4682, "BSTAR": 0, "MEAN_MOTION_DOT": -5.3e-07, "MEAN_MOTION_DDOT": 0}, "tle": {"line1": "1 44850U 19088A   25350.48660892 -.00000053  00000+0  00000+0 0  9992", "line2": "2 44850  65.4623  79.8328 0013886 249.7945 110.0707  2.13101965 46826"}}, "geometry": {"type": "Point", "coordinates": [-142.89646456460486, 56.05570145127221]}}]}